     3.02           N: GNSS NAV DATA    E: GALILEO          RINEX VERSION / TYPE
Spider v7.4.1.8151  SMO                 20200603 040431 UTC PGM / RUN BY / DATE
GAL    4.8250D+01 -1.1719D-02  7.5684D-03  0.0000D+00       IONOSPHERIC CORR
GAUT  9.3132257462D-10 0.000000000D+00 259200 2108          TIME SYSTEM CORR
GPGA  1.1641532183D-09 0.000000000D+00 259200 2108          TIME SYSTEM CORR
    18    18  1929     7                                    LEAP SECONDS
                                                            END OF HEADER
E24 2020 06 02 19 30 00 5.423183087260D-03-1.992361831071D-11 0.000000000000D+00
     2.100000000000D+01 1.396562500000D+02 3.022268657560D-09 5.604956010630D-01
     6.329268217087D-06 4.633134230971D-04 2.734363079071D-06 5.440606987000D+03
     2.430000000000D+05 4.284083843231D-08 5.864438939821D-01 4.470348358154D-08
     9.804912653511D-01 2.865000000000D+02 8.672584099596D-01-5.894174087438D-09
     4.057311986383D-10 2.580000000000D+02 2.108000000000D+03 0.000000000000D+00
     3.120000000000D+00 0.000000000000D+00 4.563480615616D-08 0.000000000000D+00
     2.437000000000D+05
E24 2020 06 02 19 30 00 5.423188325949D-03-1.992361831071D-11 0.000000000000D+00
     2.100000000000D+01 1.396562500000D+02 3.022268657560D-09 5.604956010630D-01
     6.329268217087D-06 4.633134230971D-04 2.734363079071D-06 5.440606987000D+03
     2.430000000000D+05 4.284083843231D-08 5.864438939821D-01 4.470348358154D-08
     9.804912653511D-01 2.865000000000D+02 8.672584099596D-01-5.894174087438D-09
     4.057311986383D-10 5.170000000000D+02 2.108000000000D+03 0.000000000000D+00
     3.120000000000D+00 0.000000000000D+00 4.563480615616D-08 5.098991096020D-08
     2.436550000000D+05
E25 2020 06 03 00 10 00-5.115564563312D-04-6.252776074689D-13 0.000000000000D+00
     4.900000000000D+01 1.638437500000D+02 2.988695957384D-09-1.568206675063D+00
     7.642433047295D-06 1.122854882851D-04 3.606081008911D-06 5.440610893250D+03
     2.598000000000D+05-1.490116119385D-08 5.810230890753D-01 2.793967723846D-08
     9.825374093698D-01 2.725000000000D+02-1.998817862490D+00-5.855601052145D-09
     3.968022299627D-10 2.580000000000D+02 2.108000000000D+03 0.000000000000D+00
     3.120000000000D+00 0.000000000000D+00 1.396983861923D-09 0.000000000000D+00
     2.605000000000D+05
E25 2020 06 03 00 20 00-5.115571548231D-04-6.394884621841D-13 0.000000000000D+00
     5.000000000000D+01 1.638750000000D+02 2.989767322603D-09-1.493675231146D+00
     7.642433047295D-06 1.122960820794D-04 3.600493073463D-06 5.440610933304D+03
     2.604000000000D+05-1.862645149231D-08 5.810195853865D-01 2.421438694000D-08
     9.825376258816D-01 2.726875000000D+02-1.998963911453D+00-5.859529787221D-09
     3.975165474568D-10 5.170000000000D+02 2.108000000000D+03 0.000000000000D+00
     3.120000000000D+00 0.000000000000D+00 1.396983861923D-09 1.629814505577D-09
     2.612050000000D+05
E26 2020 06 02 06 40 00 3.120153560303D-03-4.355626970209D-11 0.000000000000D+00
     7.200000000000D+01-3.362500000000D+01 2.401528531593D-09 3.019400216401D+00
    -1.534819602966D-06 4.263222217560D-05 1.475773751736D-05 5.440625345230D+03
     1.968000000000D+05 6.705522537231D-08 2.669884883285D+00 4.284083843231D-08
     9.848744327047D-01 3.171875000000D+01-7.783689532083D-01-5.287005939305D-09
     3.575148788126D-10 2.580000000000D+02 2.108000000000D+03 0.000000000000D+00
     3.120000000000D+00 0.000000000000D+00 3.958120942116D-09 0.000000000000D+00
     1.980500000000D+05
E26 2020 06 02 06 50 00 3.120127774309D-03-4.355626970209D-11 0.000000000000D+00
     7.300000000000D+01-3.271875000000D+01 2.407600341314D-09 3.090976352212D+00
    -1.490116119385D-06 4.283979069442D-05 1.484155654907D-05 5.440624870300D+03
     1.974000000000D+05 6.332993507385D-08 2.669881735085D+00 4.656612873077D-08
     9.848746301987D-01 3.003125000000D+01-7.755608366047D-01-5.290934674381D-09
     3.568005890742D-10 5.170000000000D+02 2.108000000000D+03 0.000000000000D+00
     3.120000000000D+00 0.000000000000D+00 3.958120942116D-09 4.423782229424D-09
     1.980550000000D+05
E27 2020 06 03 02 30 00 2.066323067993D-04-8.114398042380D-12 0.000000000000D+00
     6.300000000000D+01 1.540625000000D+02 2.847975855147D-09 2.330204771822D+00
     7.210299372673D-06 5.411298479885D-05 3.615394234657D-06 5.440617273331D+03
     2.682000000000D+05-1.490116119385D-08 5.809875635726D-01-3.352761268616D-08
     9.825087844517D-01 2.759687500000D+02-9.295728333540D-01-5.748810889620D-09
     2.303667395731D-10 2.580000000000D+02 2.108000000000D+03 0.000000000000D+00
     3.120000000000D+00 0.000000000000D+00 0.000000000000D+00 0.000000000000D+00
     2.689000000000D+05
E27 2020 06 03 02 30 00 2.066319575533D-04-8.114398042380D-12 0.000000000000D+00
     6.300000000000D+01 1.540625000000D+02 2.847975855147D-09 2.330204771822D+00
     7.210299372673D-06 5.411298479885D-05 3.615394234657D-06 5.440617273331D+03
     2.682000000000D+05-1.490116119385D-08 5.809875635726D-01-3.352761268616D-08
     9.825087844517D-01 2.759687500000D+02-9.295728333540D-01-5.748810889620D-09
     2.303667395731D-10 5.170000000000D+02 2.108000000000D+03 0.000000000000D+00
     3.120000000000D+00 0.000000000000D+00 0.000000000000D+00 0.000000000000D+00
     2.688550000000D+05
E30 2020 06 03 02 40 00 3.856840252411D-03-3.042543994525D-11 0.000000000000D+00
     6.400000000000D+01 1.636562500000D+02 3.012625482413D-09 1.189932852154D+00
     7.452443242073D-06 3.084155032411D-04 3.578141331673D-06 5.440602453232D+03
     2.688000000000D+05-1.862645149231D-09 5.862322609382D-01 2.980232238770D-08
     9.804866176604D-01 2.747812500000D+02 1.084222908156D+00-5.830600010751D-09
     2.528676712465D-10 2.580000000000D+02 2.108000000000D+03 0.000000000000D+00
     3.120000000000D+00 0.000000000000D+00-2.328306436539D-10 0.000000000000D+00
     2.695000000000D+05
E30 2020 06 03 02 40 00 3.856839728542D-03-3.042543994525D-11 0.000000000000D+00
     6.400000000000D+01 1.636562500000D+02 3.012625482413D-09 1.189932852154D+00
     7.452443242073D-06 3.084155032411D-04 3.578141331673D-06 5.440602453232D+03
     2.688000000000D+05-1.862645149231D-09 5.862322609382D-01 2.980232238770D-08
     9.804866176604D-01 2.747812500000D+02 1.084222908156D+00-5.830600010751D-09
     2.528676712465D-10 5.170000000000D+02 2.108000000000D+03 0.000000000000D+00
     3.120000000000D+00 0.000000000000D+00-2.328306436539D-10-4.656612873077D-10
     2.694640000000D+05
E31 2020 06 02 17 40 00-4.727352061309D-04-1.136868377216D-13 0.000000000000D+00
     1.000000000000D+01 1.365937500000D+02 3.046198404633D-09-2.808137574544D+00
     6.161630153656D-06 1.674826489761D-04 2.784654498100D-06 5.440616947174D+03
     2.364000000000D+05 6.519258022308D-08 5.811262686874D-01 6.146728992462D-08
     9.824970123499D-01 2.860625000000D+02-2.090192673692D+00-5.887745248222D-09
     4.150172983053D-10 2.580000000000D+02 2.108000000000D+03 0.000000000000D+00
     3.120000000000D+00 0.000000000000D+00 2.561137080193D-09 0.000000000000D+00
     2.371000000000D+05
E31 2020 06 02 17 40 00-4.727352643386D-04-1.136868377216D-13 0.000000000000D+00
     1.000000000000D+01 1.365937500000D+02 3.046198404633D-09-2.808137574544D+00
     6.161630153656D-06 1.674826489761D-04 2.784654498100D-06 5.440616947174D+03
     2.364000000000D+05 6.519258022308D-08 5.811262686874D-01 6.146728992462D-08
     9.824970123499D-01 2.860625000000D+02-2.090192673692D+00-5.887745248222D-09
     4.150172983053D-10 5.170000000000D+02 2.108000000000D+03 0.000000000000D+00
     3.120000000000D+00 0.000000000000D+00 2.561137080193D-09 3.026798367500D-09
     2.370550000000D+05
E33 2020 06 02 10 50 00-4.665747401305D-04 5.115907697473D-13 0.000000000000D+00
     9.700000000000D+01-2.659375000000D+01 2.243664809498D-09-2.569000983146D+00
    -1.315027475357D-06 2.231387188658D-04 1.444108784199D-05 5.440620641708D+03
     2.118000000000D+05 6.519258022308D-08 2.663224938489D+00 8.940696716309D-08
     9.916861450113D-01 4.415625000000D+01-3.788298429607D-01-5.223074704884D-09
     2.528676712465D-10 2.580000000000D+02 2.108000000000D+03 0.000000000000D+00
     3.120000000000D+00 0.000000000000D+00-5.355104804039D-09 0.000000000000D+00
     2.125000000000D+05
E33 2020 06 02 10 50 00-4.665757878684D-04 5.115907697473D-13 0.000000000000D+00
     9.700000000000D+01-2.659375000000D+01 2.243664809498D-09-2.569000983146D+00
    -1.315027475357D-06 2.231387188658D-04 1.444108784199D-05 5.440620641708D+03
     2.118000000000D+05 6.519258022308D-08 2.663224938489D+00 8.940696716309D-08
     9.916861450113D-01 4.415625000000D+01-3.788298429607D-01-5.223074704884D-09
     2.528676712465D-10 5.170000000000D+02 2.108000000000D+03 0.000000000000D+00
     3.120000000000D+00 0.000000000000D+00-5.355104804039D-09-6.053596735001D-09
     2.124640000000D+05
E36 2020 06 03 01 30 00 5.519848782569D-04-4.988010005036D-12 0.000000000000D+00
     5.700000000000D+01-1.139062500000D+02 2.313310654145D-09 1.545779614257D+00
    -5.459412932396D-06 1.693571684882D-04 1.411326229572D-05 5.440616905212D+03
     2.646000000000D+05 4.284083843231D-08 2.662981510383D+00 2.607703208923D-08
     9.917034586468D-01 4.940625000000D+01-3.070012440627D-01-5.156286208589D-09
     2.475103177968D-10 2.580000000000D+02 2.108000000000D+03 0.000000000000D+00
     3.120000000000D+00 0.000000000000D+00 3.259629011154D-09 0.000000000000D+00
     2.653000000000D+05
